#dP2018  5 19  0  0  0.00000000      96 __u+U ITR00 FIT  IAC
## 2001 518400.00000000   900.00000000 58257 0.0000000000000
+   86   C01C02C03C04C05C06C07C08C09C10C11C12C13C14E01E02E03
+        E04E05E07E08E09E11E12E14E18E19E24E26E30G01G02G03G05
+        G06G07G08G09G10G11G12G13G15G16G17G18G19G20G21G22G23
+        G24G25G26G27G28G29G30G31G32J01J02J03R01R02R03R04R05
+        R07R08R09R10R11R13R14R15R16R17R18R19R20R21R22R23R24
+        R26  0  0  0  0  0  0  0  0  0  0  0  0  0  0  0  0
++        12 12 12 12 12  9  9  9  9  8  8  8  8  8  7  6  6
++         7  6  6  6  6  7  7  7  6  7  6  6  6  3  3  3  4
++         3  3  3  3  4  4  3  4  4  3  3  4  3  3  3  3  3
++         4  3  3  4  4  3  3  3  4 10 11 11  6  6  5  5  8
++         5  6  5  6  5  5  5  5  5  5  5  5  5  5  5  5  6
++         8  0  0  0  0  0  0  0  0  0  0  0  0  0  0  0  0
%c M  cc GPS ccc cccc cccc cccc cccc ccccc ccccc ccccc ccccc
%c cc cc ccc ccc cccc cccc cccc cccc ccccc ccccc ccccc ccccc
%f  0.0000000  0.000000000  0.00000000000  0.000000000000000
%f  0.0000000  0.000000000  0.00000000000  0.000000000000000
%i    0    0    0    0      0      0      0      0         0
%i    0    0    0    0      0      0      0      0         0
/* INFORMATION & ANALYSIS CENTER (IAC) OF MCC   (RAPID DATA)
/* S/V CLOCKS ARE ALIGNED TO GPS & GLONASS TIME RESPECTIVELY
/* USING THE BROADCAST EPHEMERIS                            
/* PCV:IGS14_2000 OL/AL:FES2004  NONE     YN ORB:CoN CLK:CoN
*  2018 05 19 15  0  0.00000000
PC01 -32309.498774  27077.288057   -975.509794   -278.145768
PC02   4381.448150  41918.853752   1265.965586    424.756317
PC03 -14806.821440  39518.860428   -299.813711   -321.889793
PC04 -39603.142823  14440.966013   -337.980786   -253.064233
PC05  21891.078849  36042.435854    992.914802    416.214342
PC06 -11459.029694  36884.408463  17563.760579     24.145678
PC07 -14022.160662  21522.688586 -33348.700365    143.511242
PC08 -26046.139904  28741.393386  16331.278463    346.927556
PC09  -2150.057019  42216.197997   2530.265032   -115.459428
PC10   3502.103579  27811.388226 -31308.433027   -243.773220
PC11  16036.798303 -22647.226331   3327.798398   -514.289942
PC12  18997.701411  -7341.678948  19168.592751    448.212180
PC13 -12863.239750  29976.746760  26599.225188   -338.319628
PC14   8975.042580 -14955.555728 -21708.370221    332.886699
PE01 -19954.678220 -17029.114049  13712.678180   -348.318835
PE02  19965.131164  17027.857588 -13706.760943     13.957664
PE03  11904.862854  24775.986984 -10959.170158    -33.831734
PE04 -17576.783730  -6458.681687  22934.959823    -37.449561
PE05   -762.326258  28633.879990   7476.684582    262.443174
PE07  12931.595148 -15734.793480 -21466.024295     30.336209
PE08  17492.786552   6333.148486 -23009.390341   6581.604693
PE09 -12697.783879  15769.446802  21603.458869   6787.641897
PE11 -23151.695175  18440.172597  -1006.315204     84.162698
PE12 -22995.524786   3101.093310 -18388.714921   4191.592624
PE14   -707.213281 -26262.638329 -10985.317113   6580.564547
PE18 -11202.714196  26549.296056  -2003.238010   6196.865526
PE19 -10986.442374 -25828.686111   9399.540311     22.431215
PE24 -19934.189182   6985.046784 -20747.131531   6698.546910
PE26  10055.691417 -22601.248652 -16249.393478   5920.085799
PE30  28268.377112   7190.944395   5033.346299   5827.987694
PG01  -3175.179681 -14721.946064 -22017.304600    -49.086745
PG02 -18671.971428  15015.815130  11750.556182    110.875538
PG03 -10591.124145 -21661.946560 -11226.019461     73.366923
PG05  -8500.349227  13115.798859  21358.328764     -7.658779
PG06 -25823.575509   6131.623477  -1303.813251    402.370119
PG07 -19152.855464  -7640.993504  17203.715816    189.295024
PG08   4625.138383 -25919.866345  -2740.792900   -101.808053
PG09 -10362.396151 -14975.895419  19298.822841    513.978028
PG10  21254.082005   6830.977614 -14463.333388    185.464833
PG11     67.098625 -19230.990810 -18934.791457   -735.962369
PG12   6754.907942  21706.123112 -14084.482959    332.761424
PG13 -12528.012007  22949.275022   4569.141703    -94.327630
PG15  -1573.755760  26022.245020  -4060.723641   -353.995244
PG16   9478.715666 -11231.079966  21938.678536     24.303234
PG17 -15649.387160   3462.402821 -20766.647312    -96.548522
PG18   6206.342855 -16903.171561 -19924.241107     11.005220
PG19 -16806.757877  11129.453417 -17681.972707   -435.151581
PG20  20498.484273  16959.145055    568.138664    508.538594
PG21  21432.601026   4996.410386  15660.587257   -393.017878
PG22  -3166.951702 -19947.483339 -17010.991195   -397.039913
PG23  -2286.684481 -23924.976943  11105.731950   -216.905258
PG24   -472.103644  16231.852925 -21094.493984    -49.950737
PG25  17677.072901  19890.557889  -2234.493772   -587.541693
PG26  17205.917304  -3089.503694  20022.186099   -144.072500
PG27  12194.327780 -21436.188744   9428.582226    368.698703
PG28 -20226.923892 -11530.506156 -12115.287229    716.534714
PG29   6991.812826  17790.979240  18426.073923    447.332400
PG30 -24883.714042  -1591.707025   9390.800095     72.382757
PG31  25976.275150  -6537.861114    512.769959    120.566350
PG32  15993.314104  -2927.742221 -20948.812657   -507.309050
PJ01 -25282.161515  23134.535818  29697.598030   -255.142860
PJ02 -32127.447342  16356.588555 -17430.777263    -22.282632
PJ03 -21812.850735  30924.228426 -14009.503113    -14.926020
PR01   6512.932257  24232.088105   4550.921518     26.450357
PR02  13022.324046  16394.442840 -14561.840427    310.528163
PR03  11161.795977  -1170.787540 -22863.513634    132.623937
PR04   2416.364829 -18344.041518 -17529.823600    261.534022
PR05  -7523.771606 -24234.268398  -2661.579766    -10.849862
PR07 -11023.073773   1714.067928  22977.711520    -37.954838
PR08  -2869.757395  17870.894863  18032.230734     23.106610
PR09 -22846.783057  -8402.270277   7745.149704     27.428793
PR10 -23699.153414   -303.406781  -9564.436878     24.679782
PR11 -10528.166753   8456.228040 -21641.413113    -29.187041
PR13  23031.232432   7843.486480  -7671.614904    -10.573298
PR14  23740.880508    199.119480   9314.364338     27.386275
PR15  14308.207868  -6567.526699  20104.468719    -10.385014
PR16  -7896.902356 -11680.139811  21203.629107     92.898712
PR17  18148.521524 -10671.579090  14429.074336    133.632404
PR18  16041.540823 -19698.000024  -1852.323338    196.144527
PR19   5393.722496 -17739.482383 -17514.822356    -52.787569
PR20  -9796.948039  -4705.414088 -23074.751499   -338.530379
PR21 -18139.131550  10951.310057 -14190.399704     15.797745
PR22 -15286.317524  20134.164695   3912.445997    -44.176567
PR23  -2041.771872  15971.724733  19779.365121    154.581327
PR24  10473.684769   3821.438229  22914.949247   -166.484454
PR26  -9383.510302  -5216.175383 -23126.604245 999999.999999
EOF
